{
  "links" : {
    "next" : "https://api.nasa.gov/neo/rest/v1/feed?start_date=2013-07-09&end_date=2013-07-09&detailed=true&api_key=t0TVs3DtDT2H8Oy2Zy8m2eVrNsAVKAexjcZXUckd",
    "prev" : "https://api.nasa.gov/neo/rest/v1/feed?start_date=2013-07-07&end_date=2013-07-07&detailed=true&api_key=t0TVs3DtDT2H8Oy2Zy8m2eVrNsAVKAexjcZXUckd",
    "self" : "https://api.nasa.gov/neo/rest/v1/feed?start_date=2013-07-08&end_date=2013-07-08&detailed=true&api_key=t0TVs3DtDT2H8Oy2Zy8m2eVrNsAVKAexjcZXUckd"
  },
  "element_count" : 9,
  "near_earth_objects" : {
    "2013-07-08" : [ {
      "links" : {
        "self" : "https://api.nasa.gov/neo/rest/v1/neo/3644703?api_key=t0TVs3DtDT2H8Oy2Zy8m2eVrNsAVKAexjcZXUckd"
      },
      "neo_reference_id" : "3644703",
      "name" : "(2013 NU)",
      "nasa_jpl_url" : "http://ssd.jpl.nasa.gov/sbdb.cgi?sstr=3644703",
      "absolute_magnitude_h" : 21.2,
      "estimated_diameter" : {
        "kilometers" : {
          "estimated_diameter_min" : 0.1529519353,
          "estimated_diameter_max" : 0.3420109247
        },
        "meters" : {
          "estimated_diameter_min" : 152.9519353442,
          "estimated_diameter_max" : 342.0109247198
        },
        "miles" : {
          "estimated_diameter_min" : 0.095039897,
          "estimated_diameter_max" : 0.2125156703
        },
        "feet" : {
          "estimated_diameter_min" : 501.8108275547,
          "estimated_diameter_max" : 1122.0831222578
        }
      },
      "is_potentially_hazardous_asteroid" : false,
      "close_approach_data" : [ {
        "close_approach_date" : "2013-07-08",
        "epoch_date_close_approach" : 1373266800000,
        "relative_velocity" : {
          "kilometers_per_second" : "4.0878549226",
          "kilometers_per_hour" : "14716.2777212529",
          "miles_per_hour" : "9144.1226762974"
        },
        "miss_distance" : {
          "astronomical" : "0.3700583622",
          "lunar" : "143.9526977539",
          "kilometers" : "55359944",
          "miles" : "34399072"
        },
        "orbiting_body" : "Earth"
      } ],
      "orbital_data" : {
        "orbit_id" : "11",
        "orbit_determination_date" : "2017-04-06 08:45:28",
        "orbit_uncertainty" : "6",
        "minimum_orbit_intersection" : ".282975",
        "jupiter_tisserand_invariant" : "3.331",
        "epoch_osculation" : "2458000.5",
        "eccentricity" : ".4694528980476773",
        "semi_major_axis" : "2.448083139049594",
        "inclination" : "5.793788556950567",
        "ascending_node_longitude" : "111.3820223217659",
        "orbital_period" : "1399.064287667957",
        "perihelion_distance" : "1.298823414761107",
        "perihelion_argument" : "185.9151091656256",
        "aphelion_distance" : "3.59734286333808",
        "perihelion_time" : "2457906.991477566645",
        "mean_anomaly" : "24.0611302659433",
        "mean_motion" : ".2573148376191271",
        "equinox" : "J2000"
      }
    }, {
      "links" : {
        "self" : "https://api.nasa.gov/neo/rest/v1/neo/2099942?api_key=t0TVs3DtDT2H8Oy2Zy8m2eVrNsAVKAexjcZXUckd"
      },
      "neo_reference_id" : "2099942",
      "name" : "99942 Apophis (2004 MN4)",
      "nasa_jpl_url" : "http://ssd.jpl.nasa.gov/sbdb.cgi?sstr=2099942",
      "absolute_magnitude_h" : 19.7,
      "estimated_diameter" : {
        "kilometers" : {
          "estimated_diameter_min" : 0.3051792326,
          "estimated_diameter_max" : 0.6824015094
        },
        "meters" : {
          "estimated_diameter_min" : 305.1792325939,
          "estimated_diameter_max" : 682.4015094011
        },
        "miles" : {
          "estimated_diameter_min" : 0.1896295249,
          "estimated_diameter_max" : 0.4240245083
        },
        "feet" : {
          "estimated_diameter_min" : 1001.2442334633,
          "estimated_diameter_max" : 2238.8501681036
        }
      },
      "is_potentially_hazardous_asteroid" : true,
      "close_approach_data" : [ {
        "close_approach_date" : "2013-07-08",
        "epoch_date_close_approach" : 1373266800000,
        "relative_velocity" : {
          "kilometers_per_second" : "6.7274174571",
          "kilometers_per_hour" : "24218.7028457398",
          "miles_per_hour" : "15048.5601098987"
        },
        "miss_distance" : {
          "astronomical" : "0.2433074148",
          "lunar" : "94.6465835571",
          "kilometers" : "36398272",
          "miles" : "22616838"
        },
        "orbiting_body" : "Earth"
      } ],
      "orbital_data" : {
        "orbit_id" : "193",
        "orbit_determination_date" : "2014-10-09 14:48:04",
        "orbit_uncertainty" : "0",
        "minimum_orbit_intersection" : ".000659446",
        "jupiter_tisserand_invariant" : "6.467",
        "epoch_osculation" : "2454441.5",
        "eccentricity" : ".1910795219761208",
        "semi_major_axis" : ".9222788903126814",
        "inclination" : "3.331290217797427",
        "ascending_node_longitude" : "204.4571896287176",
        "orbital_period" : "323.513068841623",
        "perihelion_distance" : ".7460502808230671",
        "perihelion_argument" : "126.3936405969297",
        "aphelion_distance" : "1.098507499802296",
        "perihelion_time" : "2454571.318624804064",
        "mean_anomaly" : "215.5399783483177",
        "mean_motion" : "1.112783484416944",
        "equinox" : "J2000"
      }
    }, {
      "links" : {
        "self" : "https://api.nasa.gov/neo/rest/v1/neo/2163454?api_key=t0TVs3DtDT2H8Oy2Zy8m2eVrNsAVKAexjcZXUckd"
      },
      "neo_reference_id" : "2163454",
      "name" : "163454 (2002 RN129)",
      "nasa_jpl_url" : "http://ssd.jpl.nasa.gov/sbdb.cgi?sstr=2163454",
      "absolute_magnitude_h" : 18.9,
      "estimated_diameter" : {
        "kilometers" : {
          "estimated_diameter_min" : 0.4411182,
          "estimated_diameter_max" : 0.9863702813
        },
        "meters" : {
          "estimated_diameter_min" : 441.1181999969,
          "estimated_diameter_max" : 986.3702813054
        },
        "miles" : {
          "estimated_diameter_min" : 0.2740980571,
          "estimated_diameter_max" : 0.6129018881
        },
        "feet" : {
          "estimated_diameter_min" : 1447.2382352778,
          "estimated_diameter_max" : 3236.1230737181
        }
      },
      "is_potentially_hazardous_asteroid" : false,
      "close_approach_data" : [ {
        "close_approach_date" : "2013-07-08",
        "epoch_date_close_approach" : 1373266800000,
        "relative_velocity" : {
          "kilometers_per_second" : "19.1206099548",
          "kilometers_per_hour" : "68834.1958371479",
          "miles_per_hour" : "42770.89240781"
        },
        "miss_distance" : {
          "astronomical" : "0.4418877935",
          "lunar" : "171.8943481445",
          "kilometers" : "66105472",
          "miles" : "41076036"
        },
        "orbiting_body" : "Earth"
      } ],
      "orbital_data" : {
        "orbit_id" : "45",
        "orbit_determination_date" : "2017-09-27 06:52:06",
        "orbit_uncertainty" : "0",
        "minimum_orbit_intersection" : ".235088",
        "jupiter_tisserand_invariant" : "5.285",
        "epoch_osculation" : "2458000.5",
        "eccentricity" : ".3699058497005911",
        "semi_major_axis" : "1.162142679344483",
        "inclination" : "23.12365760822481",
        "ascending_node_longitude" : "332.1421265478369",
        "orbital_period" : "457.6016724902351",
        "perihelion_distance" : ".7322593040682404",
        "perihelion_argument" : "198.5965147322935",
        "aphelion_distance" : "1.592026054620725",
        "perihelion_time" : "2457782.356859121323",
        "mean_anomaly" : "171.6154800942073",
        "mean_motion" : ".786710411351659",
        "equinox" : "J2000"
      }
    } ]
  }
}